ONEWEB-0317             
1 49103U 21075AE  24104.58404595  .00000290  00000+0  77145-3 0  9990
2 49103  87.8964 148.8556 0002030 103.8474 256.2880 13.12442935130964
ONEWEB-0318             
1 49104U 21075AF  24104.57762796  .00000018  00000+0  13739-4 0  9998
2 49104  87.9139 133.6340 0002244  86.5816 273.5573 13.18686301132446
ONEWEB-0319             
1 49105U 21075AG  24104.65337539  .00000018  00000+0  12601-4 0  9998
2 49105  87.9221 163.9898 0002577  89.8572 270.2854 13.17649816129965
ONEWEB-0323             
1 49106U 21075AH  24104.57453842  .00000462  00000+0  12483-2 0  9995
2 49106  87.8964 148.8452 0002232  93.1718 266.9666 13.12442794130321
ONEWEB-0329             
1 49107U 21075AJ  24104.66127427 -.00000015  00000+0 -71601-4 0  9998
2 49107  87.9221 163.9920 0002321  98.7045 261.4350 13.17650729129940
ONEWEB-0330             
1 49108U 21075AK  24104.66285555  .00000024  00000+0  27948-4 0  9999
2 49108  87.9222 163.9920 0002396 102.1512 257.9888 13.17650780129980
ONEWEB-0292             
1 49186U 21083A   24104.55580131  .00000260  00000+0  67622-3 0  9994
2 49186  87.8895 118.4406 0001995  87.5896 272.5461 13.13472303127909
ONEWEB-0303             
1 49187U 21083B   24104.57446448  .00000038  00000+0  64158-4 0  9994
2 49187  87.9141 133.6338 0002187  87.9560 272.1823 13.18687581125259
